COSMOS 2219             
1 22219U 92076A   26108.77099332  .00000230  00000+0  14511-3 0  9996
2 22219  71.0585 294.2809 0017199 144.0946 216.1336 14.14090596724041
SL-16 R/B               
1 22220U 92076B   26108.74838847 -.00000055  00000+0 -36381-5 0  9995
2 22220  70.9980 103.9911 0011680  24.1790 148.4259 14.16867063727502
COSMOS 2221             
1 22236U 92080A   26108.76168176  .00001310  00000+0  11321-3 0  9998
2 22236  82.5034 240.6857 0015417  61.4537 298.8234 14.96368132786780
SL-16 R/B               
1 22285U 92093B   26108.73868705  .00000063  00000+0  56746-4 0  9993
2 22285  71.0198 280.1910 0006309 252.9256 107.1176 14.15453712718829
COSMOS 2228             
1 22286U 92094A   26108.81790985  .00001319  00000+0  11090-3 0  9995
2 22286  82.5205 198.8936 0018489 162.6705 197.5153 14.97388766782068
SL-16 R/B               
1 22566U 93016B   26108.78313191 -.00000200  00000+0 -78226-4 0  9992
2 22566  71.0044 130.9764 0012651 263.8194  96.1487 14.15312317707846
COSMOS 2242             
1 22626U 93024A   26108.61712911  .00001403  00000+0  12023-3 0  9999
2 22626  82.5196 228.5186 0016706 166.3942 193.7734 14.96721853786364
SL-16 R/B               
1 22803U 93059B   26108.77869321 -.00000180  00000+0 -65058-4 0  9999
2 22803  70.9892 286.5862 0016155 156.1762 204.0113 14.17239000685215
ARIANE 40 R/B           
1 22830U 93061H   26108.43186966  .00000127  00000+0  62129-4 0  9997
2 22830  98.4853 176.5213 0011229 160.8278 199.3331 14.32881340699799
COSMOS 2278             
1 23087U 94023A   26108.20296338  .00000339  00000+0  20171-3 0  9996
2 23087  71.0516  92.4265 0009982 317.6534  42.3817 14.14382193650391
SL-16 R/B               
1 23088U 94023B   26108.37295505 -.00000258  00000+0 -10834-3 0  9997
2 23088  71.0015 347.5506 0005482 250.8867 109.1663 14.15017482651700
SL-16 R/B               
1 23343U 94074B   26108.85425024  .00000283  00000+0  44521-4 0  9998
2 23343  97.7050 138.0343 0008112  91.0430  81.7105 14.79450962693182
SL-16 R/B               
1 23405U 94077B   26108.62177424  .00000242  00000+0  14788-3 0  9999
2 23405  70.9816 268.4766 0000877 151.0458 209.0713 14.15568771621884
