[
    {
        "OBJECT_NAME": "COSMOS 2219",
        "OBJECT_ID": "1992-076A",
        "EPOCH": "2026-04-18T18:30:13.822848",
        "MEAN_MOTION": 14.14090596,
        "ECCENTRICITY": 0.0017199,
        "INCLINATION": 71.0585,
        "RA_OF_ASC_NODE": 294.2809,
        "ARG_OF_PERICENTER": 144.0946,
        "MEAN_ANOMALY": 216.1336,
        "EPHEMERIS_TYPE": 0,
        "CLASSIFICATION_TYPE": "U",
        "NORAD_CAT_ID": 22219,
        "ELEMENT_SET_NO": 999,
        "REV_AT_EPOCH": 72404,
        "BSTAR": 0.00014511,
        "MEAN_MOTION_DOT": 2.3e-06,
        "MEAN_MOTION_DDOT": 0
    },
    {
        "OBJECT_NAME": "SL-16 R/B",
        "OBJECT_ID": "1992-076B",
        "EPOCH": "2026-04-18T17:57:40.763808",
        "MEAN_MOTION": 14.16867063,
        "ECCENTRICITY": 0.001168,
        "INCLINATION": 70.998,
        "RA_OF_ASC_NODE": 103.9911,
        "ARG_OF_PERICENTER": 24.179,
        "MEAN_ANOMALY": 148.4259,
        "EPHEMERIS_TYPE": 0,
        "CLASSIFICATION_TYPE": "U",
        "NORAD_CAT_ID": 22220,
        "ELEMENT_SET_NO": 999,
        "REV_AT_EPOCH": 72750,
        "BSTAR": -3.6381e-06,
        "MEAN_MOTION_DOT": -5.5e-07,
        "MEAN_MOTION_DDOT": 0
    },
    {
        "OBJECT_NAME": "COSMOS 2221",
        "OBJECT_ID": "1992-080A",
        "EPOCH": "2026-04-18T18:16:49.304064",
        "MEAN_MOTION": 14.96368132,
        "ECCENTRICITY": 0.0015417,
        "INCLINATION": 82.5034,
        "RA_OF_ASC_NODE": 240.6857,
        "ARG_OF_PERICENTER": 61.4537,
        "MEAN_ANOMALY": 298.8234,
        "EPHEMERIS_TYPE": 0,
        "CLASSIFICATION_TYPE": "U",
        "NORAD_CAT_ID": 22236,
        "ELEMENT_SET_NO": 999,
        "REV_AT_EPOCH": 78678,
        "BSTAR": 0.00011321,
        "MEAN_MOTION_DOT": 1.31e-05,
        "MEAN_MOTION_DDOT": 0
    },
    {
        "OBJECT_NAME": "SL-16 R/B",
        "OBJECT_ID": "1992-093B",
        "EPOCH": "2026-04-18T17:43:42.561120",
        "MEAN_MOTION": 14.15453712,
        "ECCENTRICITY": 0.0006309,
        "INCLINATION": 71.0198,
        "RA_OF_ASC_NODE": 280.191,
        "ARG_OF_PERICENTER": 252.9256,
        "MEAN_ANOMALY": 107.1176,
        "EPHEMERIS_TYPE": 0,
        "CLASSIFICATION_TYPE": "U",
        "NORAD_CAT_ID": 22285,
        "ELEMENT_SET_NO": 999,
        "REV_AT_EPOCH": 71882,
        "BSTAR": 5.6746e-05,
        "MEAN_MOTION_DOT": 6.3e-07,
        "MEAN_MOTION_DDOT": 0
    },
    {
        "OBJECT_NAME": "COSMOS 2228",
        "OBJECT_ID": "1992-094A",
        "EPOCH": "2026-04-18T19:37:47.411040",
        "MEAN_MOTION": 14.97388766,
        "ECCENTRICITY": 0.0018489,
        "INCLINATION": 82.5205,
        "RA_OF_ASC_NODE": 198.8936,
        "ARG_OF_PERICENTER": 162.6705,
        "MEAN_ANOMALY": 197.5153,
        "EPHEMERIS_TYPE": 0,
        "CLASSIFICATION_TYPE": "U",
        "NORAD_CAT_ID": 22286,
        "ELEMENT_SET_NO": 999,
        "REV_AT_EPOCH": 78206,
        "BSTAR": 0.0001109,
        "MEAN_MOTION_DOT": 1.319e-05,
        "MEAN_MOTION_DDOT": 0
    },
    {
        "OBJECT_NAME": "SL-16 R/B",
        "OBJECT_ID": "1993-016B",
        "EPOCH": "2026-04-18T18:47:42.597024",
        "MEAN_MOTION": 14.15312317,
        "ECCENTRICITY": 0.0012651,
        "INCLINATION": 71.0044,
        "RA_OF_ASC_NODE": 130.9764,
        "ARG_OF_PERICENTER": 263.8194,
        "MEAN_ANOMALY": 96.1487,
        "EPHEMERIS_TYPE": 0,
        "CLASSIFICATION_TYPE": "U",
        "NORAD_CAT_ID": 22566,
        "ELEMENT_SET_NO": 999,
        "REV_AT_EPOCH": 70784,
        "BSTAR": -7.8226e-05,
        "MEAN_MOTION_DOT": -2e-06,
        "MEAN_MOTION_DDOT": 0
    },
    {
        "OBJECT_NAME": "COSMOS 2242",
        "OBJECT_ID": "1993-024A",
        "EPOCH": "2026-04-18T14:48:39.955104",
        "MEAN_MOTION": 14.96721853,
        "ECCENTRICITY": 0.0016706,
        "INCLINATION": 82.5196,
        "RA_OF_ASC_NODE": 228.5186,
        "ARG_OF_PERICENTER": 166.3942,
        "MEAN_ANOMALY": 193.7734,
        "EPHEMERIS_TYPE": 0,
        "CLASSIFICATION_TYPE": "U",
        "NORAD_CAT_ID": 22626,
        "ELEMENT_SET_NO": 999,
        "REV_AT_EPOCH": 78636,
        "BSTAR": 0.00012023,
        "MEAN_MOTION_DOT": 1.403e-05,
        "MEAN_MOTION_DDOT": 0
    },
    {
        "OBJECT_NAME": "SL-16 R/B",
        "OBJECT_ID": "1993-059B",
        "EPOCH": "2026-04-18T18:41:19.093344",
        "MEAN_MOTION": 14.17239,
        "ECCENTRICITY": 0.0016155,
        "INCLINATION": 70.9892,
        "RA_OF_ASC_NODE": 286.5862,
        "ARG_OF_PERICENTER": 156.1762,
        "MEAN_ANOMALY": 204.0113,
        "EPHEMERIS_TYPE": 0,
        "CLASSIFICATION_TYPE": "U",
        "NORAD_CAT_ID": 22803,
        "ELEMENT_SET_NO": 999,
        "REV_AT_EPOCH": 68521,
        "BSTAR": -6.5058e-05,
        "MEAN_MOTION_DOT": -1.8e-06,
        "MEAN_MOTION_DDOT": 0
    },
    {
        "OBJECT_NAME": "ARIANE 40 R/B",
        "OBJECT_ID": "1993-061H",
        "EPOCH": "2026-04-18T10:21:53.538624",
        "MEAN_MOTION": 14.3288134,
        "ECCENTRICITY": 0.00112299,
        "INCLINATION": 98.4853,
        "RA_OF_ASC_NODE": 176.5213,
        "ARG_OF_PERICENTER": 160.8278,
        "MEAN_ANOMALY": 199.3331,
        "EPHEMERIS_TYPE": 0,
        "CLASSIFICATION_TYPE": "U",
        "NORAD_CAT_ID": 22830,
        "ELEMENT_SET_NO": 999,
        "REV_AT_EPOCH": 69979,
        "BSTAR": 6.2129484e-05,
        "MEAN_MOTION_DOT": 1.27e-06,
        "MEAN_MOTION_DDOT": 0
    },
    {
        "OBJECT_NAME": "COSMOS 2278",
        "OBJECT_ID": "1994-023A",
        "EPOCH": "2026-04-18T04:52:16.036032",
        "MEAN_MOTION": 14.14382193,
        "ECCENTRICITY": 0.00099821,
        "INCLINATION": 71.0516,
        "RA_OF_ASC_NODE": 92.4265,
        "ARG_OF_PERICENTER": 317.6534,
        "MEAN_ANOMALY": 42.3817,
        "EPHEMERIS_TYPE": 0,
        "CLASSIFICATION_TYPE": "U",
        "NORAD_CAT_ID": 23087,
        "ELEMENT_SET_NO": 999,
        "REV_AT_EPOCH": 65039,
        "BSTAR": 0.00020171377,
        "MEAN_MOTION_DOT": 3.39e-06,
        "MEAN_MOTION_DDOT": 0
    },
    {
        "OBJECT_NAME": "SL-16 R/B",
        "OBJECT_ID": "1994-023B",
        "EPOCH": "2026-04-18T08:57:03.316320",
        "MEAN_MOTION": 14.15017482,
        "ECCENTRICITY": 0.00054824,
        "INCLINATION": 71.0015,
        "RA_OF_ASC_NODE": 347.5506,
        "ARG_OF_PERICENTER": 250.8867,
        "MEAN_ANOMALY": 109.1663,
        "EPHEMERIS_TYPE": 0,
        "CLASSIFICATION_TYPE": "U",
        "NORAD_CAT_ID": 23088,
        "ELEMENT_SET_NO": 999,
        "REV_AT_EPOCH": 65170,
        "BSTAR": -0.00010833967,
        "MEAN_MOTION_DOT": -2.58e-06,
        "MEAN_MOTION_DDOT": 0
    },
    {
        "OBJECT_NAME": "SL-16 R/B",
        "OBJECT_ID": "1994-074B",
        "EPOCH": "2026-04-18T20:30:07.220736",
        "MEAN_MOTION": 14.79450962,
        "ECCENTRICITY": 0.0008112,
        "INCLINATION": 97.705,
        "RA_OF_ASC_NODE": 138.0343,
        "ARG_OF_PERICENTER": 91.043,
        "MEAN_ANOMALY": 81.7105,
        "EPHEMERIS_TYPE": 0,
        "CLASSIFICATION_TYPE": "U",
        "NORAD_CAT_ID": 23343,
        "ELEMENT_SET_NO": 999,
        "REV_AT_EPOCH": 69318,
        "BSTAR": 4.4521e-05,
        "MEAN_MOTION_DOT": 2.83e-06,
        "MEAN_MOTION_DDOT": 0
    },
    {
        "OBJECT_NAME": "SL-16 R/B",
        "OBJECT_ID": "1994-077B",
        "EPOCH": "2026-04-18T14:55:21.294336",
        "MEAN_MOTION": 14.15568771,
        "ECCENTRICITY": 8.77e-05,
        "INCLINATION": 70.9816,
        "RA_OF_ASC_NODE": 268.4766,
        "ARG_OF_PERICENTER": 151.0458,
        "MEAN_ANOMALY": 209.0713,
        "EPHEMERIS_TYPE": 0,
        "CLASSIFICATION_TYPE": "U",
        "NORAD_CAT_ID": 23405,
        "ELEMENT_SET_NO": 999,
        "REV_AT_EPOCH": 62188,
        "BSTAR": 0.00014788,
        "MEAN_MOTION_DOT": 2.42e-06,
        "MEAN_MOTION_DDOT": 0
    }
]